{
  "type": "FeatureCollection",
  "crs": {
    "type": "name",
    "properties": {
      "name": "EPSG:25833"
    }
  },
  "features": [
    {
      "type": "Feature",
      "geometry": {
        "type": "Point",
        "coordinates": [
          389745.9474119161,
          5812101.018984087
        ]
      },
      "properties": {
        "SRC_ID": "PDP00001",
        "STAGE": "brownfield",
        "ASSET_TYPE": "pdp",
        "INFRA_STATUS": "Existing",
        "VERIFY_STATUS": "Verified",
        "CAPACITY_USED": 0,
        "CAPACITY_TOTAL": 64,
        "POLYGON_ID": "POLY00001",
        "PDP_ID": "PDP00001",
        "MFG_ID": "MFG00001",
        "NODE_TYPE": "PDP",
        "REUSE_SOURCE": "",
        "HH": 127,
        "label": "Network_POLY00001"
      }
    },
    {
      "type": "Feature",
      "geometry": {
        "type": "Point",
        "coordinates": [
          389766.25016284856,
          5811935.059593015
        ]
      },
      "properties": {
        "SRC_ID": "PDP00003",
        "STAGE": "brownfield",
        "ASSET_TYPE": "pdp",
        "INFRA_STATUS": "Existing",
        "VERIFY_STATUS": "Verified",
        "CAPACITY_USED": 7,
        "CAPACITY_TOTAL": 32,
        "POLYGON_ID": "POLY00003",
        "PDP_ID": "PDP00003",
        "MFG_ID": "MFG00001",
        "NODE_TYPE": "PDP",
        "REUSE_SOURCE": "",
        "HH": 123,
        "label": "Network_POLY00003"
      }
    },
    {
      "type": "Feature",
      "geometry": {
        "type": "Point",
        "coordinates": [
          389563.468035175,
          5811836.5092464695
        ]
      },
      "properties": {
        "SRC_ID": "PDP00005",
        "STAGE": "brownfield",
        "ASSET_TYPE": "pdp",
        "INFRA_STATUS": "Existing",
        "VERIFY_STATUS": "Verified",
        "CAPACITY_USED": 23,
        "CAPACITY_TOTAL": 32,
        "POLYGON_ID": "POLY00005",
        "PDP_ID": "PDP00005",
        "MFG_ID": "MFG00001",
        "NODE_TYPE": "PDP",
        "REUSE_SOURCE": "",
        "HH": 121,
        "label": "Network_POLY00005"
      }
    },
    {
      "type": "Feature",
      "geometry": {
        "type": "Point",
        "coordinates": [
          389362.4871714154,
          5811873.990446464
        ]
      },
      "properties": {
        "SRC_ID": "PDP00007",
        "STAGE": "brownfield",
        "ASSET_TYPE": "pdp",
        "INFRA_STATUS": "Existing",
        "VERIFY_STATUS": "Verified",
        "CAPACITY_USED": 18,
        "CAPACITY_TOTAL": 32,
        "POLYGON_ID": "POLY00007",
        "PDP_ID": "PDP00007",
        "MFG_ID": "MFG00001",
        "NODE_TYPE": "PDP",
        "REUSE_SOURCE": "",
        "HH": 113,
        "label": "Network_POLY00007"
      }
    },
    {
      "type": "Feature",
      "geometry": {
        "type": "Point",
        "coordinates": [
          389539.2391766268,
          5811964.2272990085
        ]
      },
      "properties": {
        "SRC_ID": "PDP00009",
        "STAGE": "brownfield",
        "ASSET_TYPE": "pdp",
        "INFRA_STATUS": "Existing",
        "VERIFY_STATUS": "Verified",
        "CAPACITY_USED": 0,
        "CAPACITY_TOTAL": 32,
        "POLYGON_ID": "POLY00009",
        "PDP_ID": "PDP00009",
        "MFG_ID": "MFG00001",
        "NODE_TYPE": "PDP",
        "REUSE_SOURCE": "",
        "HH": 111,
        "label": "Network_POLY00009"
      }
    },
    {
      "type": "Feature",
      "geometry": {
        "type": "Point",
        "coordinates": [
          389335.3368853538,
          5812055.489591367
        ]
      },
      "properties": {
        "SRC_ID": "PDP00011",
        "STAGE": "brownfield",
        "ASSET_TYPE": "pdp",
        "INFRA_STATUS": "Existing",
        "VERIFY_STATUS": "Verified",
        "CAPACITY_USED": 7,
        "CAPACITY_TOTAL": 64,
        "POLYGON_ID": "POLY00011",
        "PDP_ID": "PDP00011",
        "MFG_ID": "MFG00001",
        "NODE_TYPE": "PDP",
        "REUSE_SOURCE": "",
        "HH": 104,
        "label": "Network_POLY00011"
      }
    },
    {
      "type": "Feature",
      "geometry": {
        "type": "Point",
        "coordinates": [
          389370.4108158505,
          5812183.72877345
        ]
      },
      "properties": {
        "SRC_ID": "PDP00013",
        "STAGE": "brownfield",
        "ASSET_TYPE": "pdp",
        "INFRA_STATUS": "Existing",
        "VERIFY_STATUS": "Verified",
        "CAPACITY_USED": 17,
        "CAPACITY_TOTAL": 32,
        "POLYGON_ID": "POLY00013",
        "PDP_ID": "PDP00013",
        "MFG_ID": "MFG00001",
        "NODE_TYPE": "PDP",
        "REUSE_SOURCE": "",
        "HH": 104,
        "label": "Network_POLY00013"
      }
    },
    {
      "type": "Feature",
      "geometry": {
        "type": "Point",
        "coordinates": [
          389419.563547807,
          5812054.368607817
        ]
      },
      "properties": {
        "SRC_ID": "PDP00015",
        "STAGE": "brownfield",
        "ASSET_TYPE": "pdp",
        "INFRA_STATUS": "Existing",
        "VERIFY_STATUS": "Assumed",
        "CAPACITY_USED": 7,
        "CAPACITY_TOTAL": 32,
        "POLYGON_ID": "POLY00015",
        "PDP_ID": "PDP00015",
        "MFG_ID": "MFG00001",
        "NODE_TYPE": "PDP",
        "REUSE_SOURCE": "",
        "HH": 97,
        "label": "Network_POLY00015"
      }
    },
    {
      "type": "Feature",
      "geometry": {
        "type": "Point",
        "coordinates": [
          389805.49698765966,
          5812482.094380569
        ]
      },
      "properties": {
        "SRC_ID": "PDP00017",
        "STAGE": "brownfield",
        "ASSET_TYPE": "pdp",
        "INFRA_STATUS": "Existing",
        "VERIFY_STATUS": "Verified",
        "CAPACITY_USED": 0,
        "CAPACITY_TOTAL": 32,
        "POLYGON_ID": "POLY00017",
        "PDP_ID": "PDP00017",
        "MFG_ID": "MFG00001",
        "NODE_TYPE": "PDP",
        "REUSE_SOURCE": "",
        "HH": 90,
        "label": "Network_POLY00017"
      }
    },
    {
      "type": "Feature",
      "geometry": {
        "type": "Point",
        "coordinates": [
          389799.0555909958,
          5812317.105766788
        ]
      },
      "properties": {
        "SRC_ID": "PDP00019",
        "STAGE": "brownfield",
        "ASSET_TYPE": "pdp",
        "INFRA_STATUS": "Existing",
        "VERIFY_STATUS": "Assumed",
        "CAPACITY_USED": 10,
        "CAPACITY_TOTAL": 32,
        "POLYGON_ID": "POLY00019",
        "PDP_ID": "PDP00019",
        "MFG_ID": "MFG00001",
        "NODE_TYPE": "PDP",
        "REUSE_SOURCE": "",
        "HH": 88,
        "label": "Network_POLY00019"
      }
    },
    {
      "type": "Feature",
      "geometry": {
        "type": "Point",
        "coordinates": [
          389181.43036499684,
          5811940.7905418165
        ]
      },
      "properties": {
        "SRC_ID": "PDP00021",
        "STAGE": "brownfield",
        "ASSET_TYPE": "pdp",
        "INFRA_STATUS": "Existing",
        "VERIFY_STATUS": "Verified",
        "CAPACITY_USED": 6,
        "CAPACITY_TOTAL": 32,
        "POLYGON_ID": "POLY00021",
        "PDP_ID": "PDP00021",
        "MFG_ID": "MFG00001",
        "NODE_TYPE": "PDP",
        "REUSE_SOURCE": "",
        "HH": 83,
        "label": "Network_POLY00021"
      }
    },
    {
      "type": "Feature",
      "geometry": {
        "type": "Point",
        "coordinates": [
          389669.4991556513,
          5812011.8818376055
        ]
      },
      "properties": {
        "SRC_ID": "PDP00023",
        "STAGE": "brownfield",
        "ASSET_TYPE": "pdp",
        "INFRA_STATUS": "Existing",
        "VERIFY_STATUS": "Verified",
        "CAPACITY_USED": 2,
        "CAPACITY_TOTAL": 32,
        "POLYGON_ID": "POLY00023",
        "PDP_ID": "PDP00023",
        "MFG_ID": "MFG00001",
        "NODE_TYPE": "PDP",
        "REUSE_SOURCE": "",
        "HH": 81,
        "label": "Network_POLY00023"
      }
    },
    {
      "type": "Feature",
      "geometry": {
        "type": "Point",
        "coordinates": [
          389676.466680672,
          5811928.820496266
        ]
      },
      "properties": {
        "SRC_ID": "PDP00025",
        "STAGE": "brownfield",
        "ASSET_TYPE": "pdp",
        "INFRA_STATUS": "Existing",
        "VERIFY_STATUS": "Verified",
        "CAPACITY_USED": 11,
        "CAPACITY_TOTAL": 32,
        "POLYGON_ID": "POLY00025",
        "PDP_ID": "PDP00025",
        "MFG_ID": "MFG00001",
        "NODE_TYPE": "PDP",
        "REUSE_SOURCE": "",
        "HH": 74,
        "label": "Network_POLY00025"
      }
    },
    {
      "type": "Feature",
      "geometry": {
        "type": "Point",
        "coordinates": [
          389811.3477613557,
          5812009.05859934
        ]
      },
      "properties": {
        "SRC_ID": "PDP00027",
        "STAGE": "brownfield",
        "ASSET_TYPE": "pdp",
        "INFRA_STATUS": "Existing",
        "VERIFY_STATUS": "Verified",
        "CAPACITY_USED": 1,
        "CAPACITY_TOTAL": 64,
        "POLYGON_ID": "POLY00027",
        "PDP_ID": "PDP00027",
        "MFG_ID": "MFG00001",
        "NODE_TYPE": "PDP",
        "REUSE_SOURCE": "",
        "HH": 69,
        "label": "Network_POLY00027"
      }
    },
    {
      "type": "Feature",
      "geometry": {
        "type": "Point",
        "coordinates": [
          389572.4164282912,
          5811986.460568487
        ]
      },
      "properties": {
        "SRC_ID": "PDP00029",
        "STAGE": "brownfield",
        "ASSET_TYPE": "pdp",
        "INFRA_STATUS": "Existing",
        "VERIFY_STATUS": "Assumed",
        "CAPACITY_USED": 17,
        "CAPACITY_TOTAL": 32,
        "POLYGON_ID": "POLY00029",
        "PDP_ID": "PDP00029",
        "MFG_ID": "MFG00001",
        "NODE_TYPE": "PDP",
        "REUSE_SOURCE": "",
        "HH": 67,
        "label": "Network_POLY00029"
      }
    },
    {
      "type": "Feature",
      "geometry": {
        "type": "Point",
        "coordinates": [
          389482.94819254987,
          5812082.1501105195
        ]
      },
      "properties": {
        "SRC_ID": "PDP00031",
        "STAGE": "brownfield",
        "ASSET_TYPE": "pdp",
        "INFRA_STATUS": "Existing",
        "VERIFY_STATUS": "Assumed",
        "CAPACITY_USED": 2,
        "CAPACITY_TOTAL": 64,
        "POLYGON_ID": "POLY00031",
        "PDP_ID": "PDP00031",
        "MFG_ID": "MFG00001",
        "NODE_TYPE": "PDP",
        "REUSE_SOURCE": "",
        "HH": 41,
        "label": "Network_POLY00031"
      }
    }
  ]
}