{
  "type": "FeatureCollection",
  "crs": {
    "type": "name",
    "properties": {
      "name": "EPSG:25833"
    }
  },
  "features": [
    {
      "type": "Feature",
      "geometry": {
        "type": "LineString",
        "coordinates": [
          [
            389431.24287634034,
            5812174.393726567
          ],
          [
            389433.95,
            5812178.600000001
          ],
          [
            389435.4,
            5812177.9
          ],
          [
            389436.75,
            5812176.850000001
          ],
          [
            389438.10000000003,
            5812175.800000001
          ],
          [
            389439.45,
            5812174.800000001
          ],
          [
            389440.60000000003,
            5812173.550000001
          ],
          [
            389441.75,
            5812172.350000001
          ],
          [
            389442.9,
            5812171.100000001
          ],
          [
            389443.7,
            5812169.65
          ],
          [
            389444.55000000005,
            5812168.15
          ],
          [
            389445.4,
            5812166.7
          ],
          [
            389445.85000000003,
            5812165.300000001
          ],
          [
            389446.35000000003,
            5812163.9
          ],
          [
            389446.80000000005,
            5812162.5
          ],
          [
            389447.10000000003,
            5812160.550000001
          ],
          [
            389447.45,
            5812158.600000001
          ],
          [
            389447.80000000005,
            5812156.65
          ],
          [
            389448.15,
            5812154.7
          ],
          [
            389448.45,
            5812152.75
          ],
          [
            389448.80000000005,
            5812150.75
          ],
          [
            389449.15,
            5812148.800000001
          ],
          [
            389449.5,
            5812146.850000001
          ],
          [
            389449.80000000005,
            5812144.9
          ],
          [
            389450.15,
            5812142.95
          ],
          [
            389450.5,
            5812141.0
          ],
          [
            389450.80000000005,
            5812139.050000001
          ],
          [
            389451.15,
            5812137.100000001
          ],
          [
            389451.5,
            5812135.100000001
          ],
          [
            389451.85000000003,
            5812133.15
          ],
          [
            389452.15,
            5812131.2
          ],
          [
            389452.5,
            5812129.25
          ],
          [
            389452.85000000003,
            5812127.300000001
          ],
          [
            389453.2,
            5812125.350000001
          ],
          [
            389453.5,
            5812123.4
          ],
          [
            389453.85000000003,
            5812121.45
          ],
          [
            389454.2,
            5812119.5
          ],
          [
            389454.55000000005,
            5812117.5
          ],
          [
            389454.85000000003,
            5812115.550000001
          ],
          [
            389455.2,
            5812113.600000001
          ],
          [
            389455.55000000005,
            5812111.65
          ],
          [
            389455.9,
            5812109.7
          ],
          [
            389456.2,
            5812107.75
          ],
          [
            389456.55000000005,
            5812105.800000001
          ],
          [
            389456.9,
            5812103.850000001
          ],
          [
            389457.2,
            5812101.850000001
          ],
          [
            389457.55000000005,
            5812099.9
          ],
          [
            389457.9,
            5812097.95
          ],
          [
            389458.25,
            5812096.0
          ],
          [
            389458.55000000005,
            5812094.050000001
          ],
          [
            389458.9,
            5812092.100000001
          ],
          [
            389459.25,
            5812090.15
          ],
          [
            389459.60000000003,
            5812088.2
          ],
          [
            389459.9,
            5812086.2
          ],
          [
            389460.25,
            5812084.25
          ],
          [
            389460.60000000003,
            5812082.300000001
          ],
          [
            389460.95,
            5812080.350000001
          ],
          [
            389461.25,
            5812078.4
          ],
          [
            389461.60000000003,
            5812076.45
          ],
          [
            389461.85000000003,
            5812074.9
          ],
          [
            389463.10000000003,
            5812073.350000001
          ],
          [
            389465.10000000003,
            5812073.75
          ],
          [
            389467.0,
            5812074.100000001
          ],
          [
            389468.95,
            5812074.45
          ],
          [
            389470.9,
            5812074.800000001
          ],
          [
            389472.85000000003,
            5812075.2
          ],
          [
            389474.80000000005,
            5812075.550000001
          ],
          [
            389476.75,
            5812075.9
          ],
          [
            389478.7,
            5812076.25
          ],
          [
            389480.65,
            5812076.65
          ],
          [
            389482.60000000003,
            5812077.0
          ],
          [
            389484.55000000005,
            5812077.350000001
          ],
          [
            389486.5,
            5812077.7
          ],
          [
            389488.4,
            5812078.100000001
          ],
          [
            389490.35000000003,
            5812078.45
          ],
          [
            389492.30000000005,
            5812078.800000001
          ],
          [
            389494.25,
            5812079.2
          ],
          [
            389496.2,
            5812079.550000001
          ],
          [
            389498.15,
            5812079.9
          ],
          [
            389500.10000000003,
            5812080.25
          ],
          [
            389502.05000000005,
            5812080.65
          ],
          [
            389504.0,
            5812081.0
          ],
          [
            389505.95,
            5812081.350000001
          ],
          [
            389507.9,
            5812081.7
          ],
          [
            389509.85000000003,
            5812082.100000001
          ],
          [
            389511.80000000005,
            5812082.45
          ],
          [
            389513.75,
            5812082.800000001
          ],
          [
            389515.7,
            5812083.2
          ],
          [
            389517.65,
            5812083.550000001
          ],
          [
            389519.60000000003,
            5812083.9
          ],
          [
            389521.55000000005,
            5812084.25
          ],
          [
            389523.45,
            5812084.65
          ],
          [
            389525.4,
            5812085.0
          ],
          [
            389527.35000000003,
            5812085.350000001
          ],
          [
            389529.30000000005,
            5812085.75
          ],
          [
            389531.25,
            5812086.100000001
          ],
          [
            389533.25,
            5812086.45
          ],
          [
            389535.2,
            5812086.800000001
          ],
          [
            389537.10000000003,
            5812087.15
          ],
          [
            389539.05000000005,
            5812087.45
          ],
          [
            389540.95,
            5812087.800000001
          ],
          [
            389542.9,
            5812088.15
          ],
          [
            389544.85000000003,
            5812088.45
          ],
          [
            389546.75,
            5812088.800000001
          ],
          [
            389548.7,
            5812089.15
          ],
          [
            389550.60000000003,
            5812089.45
          ],
          [
            389553.10000000003,
            5812088.9
          ],
          [
            389553.45,
            5812086.9
          ],
          [
            389553.80000000005,
            5812084.95
          ],
          [
            389555.45,
            5812084.2
          ],
          [
            389557.35000000003,
            5812084.550000001
          ],
          [
            389559.30000000005,
            5812084.9
          ],
          [
            389561.2,
            5812085.2
          ],
          [
            389563.15,
            5812085.550000001
          ],
          [
            389565.05000000005,
            5812085.9
          ],
          [
            389567.0,
            5812086.2
          ],
          [
            389568.9,
            5812086.550000001
          ],
          [
            389570.85000000003,
            5812086.9
          ],
          [
            389572.75,
            5812087.25
          ],
          [
            389574.7,
            5812087.550000001
          ],
          [
            389576.60000000003,
            5812087.9
          ],
          [
            389578.55000000005,
            5812088.25
          ],
          [
            389580.45,
            5812088.550000001
          ],
          [
            389582.4,
            5812088.9
          ],
          [
            389584.30000000005,
            5812089.25
          ],
          [
            389586.25,
            5812089.550000001
          ],
          [
            389588.15,
            5812089.9
          ],
          [
            389590.10000000003,
            5812090.25
          ],
          [
            389592.0,
            5812090.550000001
          ],
          [
            389593.95,
            5812090.9
          ],
          [
            389595.85000000003,
            5812091.25
          ],
          [
            389597.80000000005,
            5812091.550000001
          ],
          [
            389599.7,
            5812091.9
          ],
          [
            389601.60000000003,
            5812092.25
          ],
          [
            389603.55000000005,
            5812092.550000001
          ],
          [
            389605.45,
            5812092.9
          ],
          [
            389607.4,
            5812093.25
          ],
          [
            389609.4,
            5812093.4
          ],
          [
            389611.4,
            5812093.600000001
          ],
          [
            389613.35000000003,
            5812093.75
          ],
          [
            389615.35000000003,
            5812093.95
          ],
          [
            389617.35000000003,
            5812094.15
          ],
          [
            389619.35000000003,
            5812094.300000001
          ],
          [
            389621.30000000005,
            5812094.5
          ],
          [
            389623.30000000005,
            5812094.65
          ],
          [
            389625.30000000005,
            5812094.850000001
          ],
          [
            389627.30000000005,
            5812095.050000001
          ],
          [
            389629.30000000005,
            5812095.2
          ],
          [
            389631.25,
            5812095.4
          ],
          [
            389633.25,
            5812095.550000001
          ],
          [
            389635.25,
            5812095.75
          ],
          [
            389637.25,
            5812095.95
          ],
          [
            389639.2,
            5812096.100000001
          ],
          [
            389641.2,
            5812096.300000001
          ],
          [
            389643.2,
            5812096.45
          ],
          [
            389645.2,
            5812096.65
          ],
          [
            389647.2,
            5812096.850000001
          ],
          [
            389649.15,
            5812097.0
          ],
          [
            389651.15,
            5812097.2
          ],
          [
            389653.15,
            5812097.350000001
          ],
          [
            389655.15,
            5812097.550000001
          ],
          [
            389657.10000000003,
            5812097.75
          ],
          [
            389659.10000000003,
            5812097.9
          ],
          [
            389661.10000000003,
            5812098.100000001
          ],
          [
            389663.10000000003,
            5812098.25
          ],
          [
            389665.10000000003,
            5812098.45
          ],
          [
            389667.05000000005,
            5812098.65
          ],
          [
            389669.05000000005,
            5812098.800000001
          ],
          [
            389671.05000000005,
            5812099.0
          ],
          [
            389673.05000000005,
            5812099.15
          ],
          [
            389674.85000000003,
            5812099.350000001
          ],
          [
            389676.7,
            5812099.5
          ],
          [
            389678.55000000005,
            5812099.7
          ],
          [
            389680.4,
            5812099.850000001
          ],
          [
            389682.2,
            5812100.050000001
          ],
          [
            389684.05000000005,
            5812100.2
          ],
          [
            389685.9,
            5812100.4
          ],
          [
            389687.75,
            5812100.550000001
          ],
          [
            389689.55000000005,
            5812100.75
          ],
          [
            389691.4,
            5812100.9
          ],
          [
            389693.25,
            5812101.050000001
          ],
          [
            389695.10000000003,
            5812101.25
          ],
          [
            389697.05000000005,
            5812101.45
          ],
          [
            389699.05000000005,
            5812101.600000001
          ],
          [
            389701.05000000005,
            5812101.800000001
          ],
          [
            389703.05000000005,
            5812102.0
          ],
          [
            389705.0,
            5812102.2
          ],
          [
            389707.0,
            5812102.350000001
          ],
          [
            389709.0,
            5812102.550000001
          ],
          [
            389710.95,
            5812102.75
          ],
          [
            389712.95,
            5812102.95
          ],
          [
            389714.95,
            5812103.100000001
          ],
          [
            389716.95,
            5812103.300000001
          ],
          [
            389718.9,
            5812103.5
          ],
          [
            389720.9,
            5812103.7
          ],
          [
            389722.9,
            5812103.850000001
          ],
          [
            389724.9,
            5812104.050000001
          ],
          [
            389726.85000000003,
            5812104.25
          ],
          [
            389728.85000000003,
            5812104.45
          ],
          [
            389730.85000000003,
            5812104.600000001
          ],
          [
            389732.85000000003,
            5812104.800000001
          ],
          [
            389734.80000000005,
            5812105.0
          ],
          [
            389736.80000000005,
            5812105.2
          ],
          [
            389738.80000000005,
            5812105.350000001
          ],
          [
            389740.75,
            5812105.550000001
          ],
          [
            389742.75,
            5812105.75
          ],
          [
            389744.75,
            5812105.95
          ],
          [
            389745.47802776465,
            5812105.996903182
          ],
          [
            389745.9474119161,
            5812101.018984087
          ],
          [
            389745.9474119161,
            5812101.018984087
          ],
          [
            389745.47802776465,
            5812105.996903182
          ]
        ]
      },
      "properties": {
        "SRC_ID": "BF_FIBRE_000",
        "STAGE": "brownfield",
        "ASSET_TYPE": "fibre",
        "INFRA_STATUS": "Existing",
        "VERIFY_STATUS": "Verified",
        "CAPACITY_USED": 8,
        "CAPACITY_TOTAL": 48,
        "POLYGON_ID": "POLY00001",
        "PDP_ID": "PDP00001",
        "REUSE_SOURCE": ""
      }
    },
    {
      "type": "Feature",
      "geometry": {
        "type": "LineString",
        "coordinates": [
          [
            389431.24287634034,
            5812174.393726567
          ],
          [
            389433.95,
            5812178.600000001
          ],
          [
            389435.4,
            5812177.9
          ],
          [
            389436.75,
            5812176.850000001
          ],
          [
            389438.10000000003,
            5812175.800000001
          ],
          [
            389439.45,
            5812174.800000001
          ],
          [
            389440.60000000003,
            5812173.550000001
          ],
          [
            389441.75,
            5812172.350000001
          ],
          [
            389442.9,
            5812171.100000001
          ],
          [
            389443.7,
            5812169.65
          ],
          [
            389444.55000000005,
            5812168.15
          ],
          [
            389445.4,
            5812166.7
          ],
          [
            389445.85000000003,
            5812165.300000001
          ],
          [
            389446.35000000003,
            5812163.9
          ],
          [
            389446.80000000005,
            5812162.5
          ],
          [
            389447.10000000003,
            5812160.550000001
          ],
          [
            389447.45,
            5812158.600000001
          ],
          [
            389447.80000000005,
            5812156.65
          ],
          [
            389448.15,
            5812154.7
          ],
          [
            389448.45,
            5812152.75
          ],
          [
            389448.80000000005,
            5812150.75
          ],
          [
            389449.15,
            5812148.800000001
          ],
          [
            389449.5,
            5812146.850000001
          ],
          [
            389449.80000000005,
            5812144.9
          ],
          [
            389450.15,
            5812142.95
          ],
          [
            389450.5,
            5812141.0
          ],
          [
            389450.80000000005,
            5812139.050000001
          ],
          [
            389451.15,
            5812137.100000001
          ],
          [
            389451.5,
            5812135.100000001
          ],
          [
            389451.85000000003,
            5812133.15
          ],
          [
            389452.15,
            5812131.2
          ],
          [
            389452.5,
            5812129.25
          ],
          [
            389452.85000000003,
            5812127.300000001
          ],
          [
            389453.2,
            5812125.350000001
          ],
          [
            389453.5,
            5812123.4
          ],
          [
            389453.85000000003,
            5812121.45
          ],
          [
            389454.2,
            5812119.5
          ],
          [
            389454.55000000005,
            5812117.5
          ],
          [
            389454.85000000003,
            5812115.550000001
          ],
          [
            389455.2,
            5812113.600000001
          ],
          [
            389455.55000000005,
            5812111.65
          ],
          [
            389455.9,
            5812109.7
          ],
          [
            389456.2,
            5812107.75
          ],
          [
            389456.55000000005,
            5812105.800000001
          ],
          [
            389456.9,
            5812103.850000001
          ],
          [
            389457.2,
            5812101.850000001
          ],
          [
            389457.55000000005,
            5812099.9
          ],
          [
            389457.9,
            5812097.95
          ],
          [
            389458.25,
            5812096.0
          ],
          [
            389458.55000000005,
            5812094.050000001
          ],
          [
            389458.9,
            5812092.100000001
          ],
          [
            389459.25,
            5812090.15
          ],
          [
            389459.60000000003,
            5812088.2
          ],
          [
            389459.9,
            5812086.2
          ],
          [
            389460.25,
            5812084.25
          ],
          [
            389460.60000000003,
            5812082.300000001
          ],
          [
            389460.95,
            5812080.350000001
          ],
          [
            389461.25,
            5812078.4
          ],
          [
            389461.60000000003,
            5812076.45
          ],
          [
            389461.85000000003,
            5812074.9
          ],
          [
            389463.10000000003,
            5812073.350000001
          ],
          [
            389465.10000000003,
            5812073.75
          ],
          [
            389467.0,
            5812074.100000001
          ],
          [
            389468.95,
            5812074.45
          ],
          [
            389470.9,
            5812074.800000001
          ],
          [
            389472.85000000003,
            5812075.2
          ],
          [
            389474.80000000005,
            5812075.550000001
          ],
          [
            389476.75,
            5812075.9
          ],
          [
            389478.7,
            5812076.25
          ],
          [
            389480.65,
            5812076.65
          ],
          [
            389482.60000000003,
            5812077.0
          ],
          [
            389484.80000000005,
            5812077.15
          ],
          [
            389485.10000000003,
            5812075.25
          ],
          [
            389485.45,
            5812073.350000001
          ],
          [
            389487.60000000003,
            5812071.850000001
          ],
          [
            389489.55000000005,
            5812072.2
          ],
          [
            389491.45,
            5812072.550000001
          ],
          [
            389493.4,
            5812072.9
          ],
          [
            389495.35000000003,
            5812073.300000001
          ],
          [
            389497.30000000005,
            5812073.65
          ],
          [
            389499.25,
            5812074.0
          ],
          [
            389501.2,
            5812074.350000001
          ],
          [
            389503.15,
            5812074.75
          ],
          [
            389505.10000000003,
            5812075.100000001
          ],
          [
            389507.05000000005,
            5812075.45
          ],
          [
            389509.0,
            5812075.850000001
          ],
          [
            389510.95,
            5812076.2
          ],
          [
            389512.9,
            5812076.550000001
          ],
          [
            389514.85000000003,
            5812076.9
          ],
          [
            389516.80000000005,
            5812077.300000001
          ],
          [
            389518.75,
            5812077.65
          ],
          [
            389520.7,
            5812078.0
          ],
          [
            389522.65,
            5812078.350000001
          ],
          [
            389524.55000000005,
            5812078.75
          ],
          [
            389526.5,
            5812079.100000001
          ],
          [
            389528.45,
            5812079.45
          ],
          [
            389530.4,
            5812079.850000001
          ],
          [
            389531.5,
            5812077.350000001
          ],
          [
            389531.75,
            5812075.45
          ],
          [
            389532.0,
            5812073.5
          ],
          [
            389532.25,
            5812071.550000001
          ],
          [
            389532.5,
            5812069.600000001
          ],
          [
            389532.75,
            5812067.65
          ],
          [
            389533.0,
            5812065.7
          ],
          [
            389533.25,
            5812063.800000001
          ],
          [
            389533.5,
            5812061.850000001
          ],
          [
            389533.7,
            5812059.9
          ],
          [
            389533.7915715162,
            5812059.35252804
          ],
          [
            389528.83119078836,
            5812058.724337754
          ],
          [
            389528.83119078836,
            5812058.724337754
          ],
          [
            389533.7915715162,
            5812059.35252804
          ]
        ]
      },
      "properties": {
        "SRC_ID": "BF_FIBRE_003",
        "STAGE": "brownfield",
        "ASSET_TYPE": "fibre",
        "INFRA_STATUS": "Existing",
        "VERIFY_STATUS": "Verified",
        "CAPACITY_USED": 2,
        "CAPACITY_TOTAL": 48,
        "POLYGON_ID": "POLY00010",
        "PDP_ID": "PDP00010",
        "REUSE_SOURCE": ""
      }
    },
    {
      "type": "Feature",
      "geometry": {
        "type": "LineString",
        "coordinates": [
          [
            389431.24287634034,
            5812174.393726567
          ],
          [
            389433.95,
            5812178.600000001
          ],
          [
            389435.4,
            5812177.9
          ],
          [
            389436.75,
            5812176.850000001
          ],
          [
            389438.10000000003,
            5812175.800000001
          ],
          [
            389439.45,
            5812174.800000001
          ],
          [
            389440.60000000003,
            5812173.550000001
          ],
          [
            389441.75,
            5812172.350000001
          ],
          [
            389442.9,
            5812171.100000001
          ],
          [
            389443.7,
            5812169.65
          ],
          [
            389444.55000000005,
            5812168.15
          ],
          [
            389445.4,
            5812166.7
          ],
          [
            389445.85000000003,
            5812165.300000001
          ],
          [
            389446.35000000003,
            5812163.9
          ],
          [
            389446.80000000005,
            5812162.5
          ],
          [
            389447.10000000003,
            5812160.550000001
          ],
          [
            389447.45,
            5812158.600000001
          ],
          [
            389447.80000000005,
            5812156.65
          ],
          [
            389448.15,
            5812154.7
          ],
          [
            389448.45,
            5812152.75
          ],
          [
            389448.80000000005,
            5812150.75
          ],
          [
            389449.15,
            5812148.800000001
          ],
          [
            389449.5,
            5812146.850000001
          ],
          [
            389449.80000000005,
            5812144.9
          ],
          [
            389450.15,
            5812142.95
          ],
          [
            389450.5,
            5812141.0
          ],
          [
            389450.80000000005,
            5812139.050000001
          ],
          [
            389451.15,
            5812137.100000001
          ],
          [
            389451.5,
            5812135.100000001
          ],
          [
            389451.85000000003,
            5812133.15
          ],
          [
            389452.15,
            5812131.2
          ],
          [
            389452.5,
            5812129.25
          ],
          [
            389452.85000000003,
            5812127.300000001
          ],
          [
            389453.2,
            5812125.350000001
          ],
          [
            389453.5,
            5812123.4
          ],
          [
            389453.85000000003,
            5812121.45
          ],
          [
            389454.2,
            5812119.5
          ],
          [
            389454.55000000005,
            5812117.5
          ],
          [
            389454.85000000003,
            5812115.550000001
          ],
          [
            389455.2,
            5812113.600000001
          ],
          [
            389455.55000000005,
            5812111.65
          ],
          [
            389455.9,
            5812109.7
          ],
          [
            389456.2,
            5812107.75
          ],
          [
            389456.55000000005,
            5812105.800000001
          ],
          [
            389456.9,
            5812103.850000001
          ],
          [
            389457.2,
            5812101.850000001
          ],
          [
            389457.55000000005,
            5812099.9
          ],
          [
            389457.9,
            5812097.95
          ],
          [
            389458.25,
            5812096.0
          ],
          [
            389458.55000000005,
            5812094.050000001
          ],
          [
            389458.9,
            5812092.100000001
          ],
          [
            389459.25,
            5812090.15
          ],
          [
            389459.60000000003,
            5812088.2
          ],
          [
            389459.9,
            5812086.2
          ],
          [
            389460.25,
            5812084.25
          ],
          [
            389460.60000000003,
            5812082.300000001
          ],
          [
            389460.95,
            5812080.350000001
          ],
          [
            389461.25,
            5812078.4
          ],
          [
            389461.60000000003,
            5812076.45
          ],
          [
            389461.85000000003,
            5812074.9
          ],
          [
            389463.10000000003,
            5812073.350000001
          ],
          [
            389465.10000000003,
            5812073.75
          ],
          [
            389467.0,
            5812074.100000001
          ],
          [
            389467.80000000005,
            5812075.9
          ],
          [
            389467.5,
            5812077.45
          ],
          [
            389467.2,
            5812079.4
          ],
          [
            389466.85000000003,
            5812081.4
          ],
          [
            389466.5,
            5812083.350000001
          ],
          [
            389466.15,
            5812085.300000001
          ],
          [
            389465.80000000005,
            5812087.300000001
          ],
          [
            389465.5,
            5812089.25
          ],
          [
            389465.15,
            5812091.2
          ],
          [
            389464.80000000005,
            5812093.2
          ],
          [
            389464.45,
            5812095.15
          ],
          [
            389464.15,
            5812097.100000001
          ],
          [
            389463.80000000005,
            5812099.100000001
          ],
          [
            389463.45,
            5812101.050000001
          ],
          [
            389463.10000000003,
            5812103.0
          ],
          [
            389462.80000000005,
            5812105.0
          ],
          [
            389462.45,
            5812106.95
          ],
          [
            389462.10000000003,
            5812108.9
          ],
          [
            389461.75,
            5812110.9
          ],
          [
            389461.4,
            5812112.850000001
          ],
          [
            389461.10000000003,
            5812114.800000001
          ],
          [
            389460.75,
            5812116.800000001
          ],
          [
            389460.4,
            5812118.75
          ],
          [
            389460.05000000005,
            5812120.7
          ],
          [
            389459.75,
            5812122.65
          ],
          [
            389459.4,
            5812124.65
          ],
          [
            389459.05000000005,
            5812126.600000001
          ],
          [
            389458.7,
            5812128.550000001
          ],
          [
            389458.4,
            5812130.550000001
          ],
          [
            389458.05000000005,
            5812132.5
          ],
          [
            389457.7,
            5812134.45
          ],
          [
            389457.35000000003,
            5812136.45
          ],
          [
            389457.0,
            5812138.4
          ],
          [
            389456.7,
            5812140.350000001
          ],
          [
            389456.35000000003,
            5812142.350000001
          ],
          [
            389456.0,
            5812144.300000001
          ],
          [
            389455.65,
            5812146.25
          ],
          [
            389455.35000000003,
            5812148.25
          ],
          [
            389455.0,
            5812150.2
          ],
          [
            389454.65,
            5812152.15
          ],
          [
            389454.30000000005,
            5812154.15
          ],
          [
            389454.0,
            5812156.100000001
          ],
          [
            389453.65,
            5812158.050000001
          ],
          [
            389453.30000000005,
            5812160.050000001
          ],
          [
            389452.95,
            5812162.0
          ],
          [
            389452.60000000003,
            5812163.95
          ],
          [
            389452.05000000005,
            5812165.7
          ],
          [
            389451.5,
            5812167.4
          ],
          [
            389450.9,
            5812169.15
          ],
          [
            389450.15,
            5812170.550000001
          ],
          [
            389449.35000000003,
            5812171.9
          ],
          [
            389448.55000000005,
            5812173.300000001
          ],
          [
            389447.75,
            5812174.7
          ],
          [
            389446.7,
            5812175.850000001
          ],
          [
            389445.60000000003,
            5812176.95
          ],
          [
            389444.55000000005,
            5812178.100000001
          ],
          [
            389443.5,
            5812179.25
          ],
          [
            389442.30000000005,
            5812180.15
          ],
          [
            389441.05000000005,
            5812181.100000001
          ],
          [
            389439.85000000003,
            5812182.050000001
          ],
          [
            389438.60000000003,
            5812183.0
          ],
          [
            389436.9,
            5812183.850000001
          ],
          [
            389435.15,
            5812184.75
          ],
          [
            389433.45,
            5812185.600000001
          ],
          [
            389431.7,
            5812186.5
          ],
          [
            389430.10000000003,
            5812186.850000001
          ],
          [
            389428.5,
            5812187.2
          ],
          [
            389426.95,
            5812187.550000001
          ],
          [
            389425.5,
            5812187.600000001
          ],
          [
            389424.05000000005,
            5812187.65
          ],
          [
            389422.60000000003,
            5812187.65
          ],
          [
            389420.65,
            5812187.300000001
          ],
          [
            389418.7,
            5812187.0
          ],
          [
            389416.7,
            5812186.65
          ],
          [
            389414.75,
            5812186.300000001
          ],
          [
            389412.80000000005,
            5812185.95
          ],
          [
            389410.80000000005,
            5812185.65
          ],
          [
            389408.85000000003,
            5812185.300000001
          ],
          [
            389406.85000000003,
            5812184.95
          ],
          [
            389404.9,
            5812184.600000001
          ],
          [
            389402.95,
            5812184.25
          ],
          [
            389400.95,
            5812183.95
          ],
          [
            389399.0,
            5812183.600000001
          ],
          [
            389397.0,
            5812183.25
          ],
          [
            389395.05000000005,
            5812182.9
          ],
          [
            389393.10000000003,
            5812182.550000001
          ],
          [
            389391.10000000003,
            5812182.25
          ],
          [
            389389.15,
            5812181.9
          ],
          [
            389387.2,
            5812181.550000001
          ],
          [
            389385.2,
            5812181.2
          ],
          [
            389383.25,
            5812180.850000001
          ],
          [
            389381.25,
            5812180.550000001
          ],
          [
            389379.30000000005,
            5812180.2
          ],
          [
            389377.35000000003,
            5812179.850000001
          ],
          [
            389375.35000000003,
            5812179.5
          ],
          [
            389373.4,
            5812179.15
          ],
          [
            389371.45,
            5812178.850000001
          ],
          [
            389371.2610360676,
            5812178.801591133
          ],
          [
            389370.4108158505,
            5812183.72877345
          ],
          [
            389370.4108158505,
            5812183.72877345
          ],
          [
            389371.2610360676,
            5812178.801591133
          ]
        ]
      },
      "properties": {
        "SRC_ID": "BF_FIBRE_004",
        "STAGE": "brownfield",
        "ASSET_TYPE": "fibre",
        "INFRA_STATUS": "Existing",
        "VERIFY_STATUS": "Verified",
        "CAPACITY_USED": 12,
        "CAPACITY_TOTAL": 144,
        "POLYGON_ID": "POLY00013",
        "PDP_ID": "PDP00013",
        "REUSE_SOURCE": ""
      }
    },
    {
      "type": "Feature",
      "geometry": {
        "type": "LineString",
        "coordinates": [
          [
            389431.24287634034,
            5812174.393726567
          ],
          [
            389433.95,
            5812178.600000001
          ],
          [
            389435.4,
            5812177.9
          ],
          [
            389436.75,
            5812176.850000001
          ],
          [
            389438.10000000003,
            5812175.800000001
          ],
          [
            389439.45,
            5812174.800000001
          ],
          [
            389440.60000000003,
            5812173.550000001
          ],
          [
            389441.75,
            5812172.350000001
          ],
          [
            389442.9,
            5812171.100000001
          ],
          [
            389443.7,
            5812169.65
          ],
          [
            389444.55000000005,
            5812168.15
          ],
          [
            389445.4,
            5812166.7
          ],
          [
            389445.85000000003,
            5812165.300000001
          ],
          [
            389446.35000000003,
            5812163.9
          ],
          [
            389446.80000000005,
            5812162.5
          ],
          [
            389447.10000000003,
            5812160.550000001
          ],
          [
            389447.45,
            5812158.600000001
          ],
          [
            389447.80000000005,
            5812156.65
          ],
          [
            389448.15,
            5812154.7
          ],
          [
            389448.45,
            5812152.75
          ],
          [
            389448.80000000005,
            5812150.75
          ],
          [
            389449.15,
            5812148.800000001
          ],
          [
            389449.5,
            5812146.850000001
          ],
          [
            389449.80000000005,
            5812144.9
          ],
          [
            389450.15,
            5812142.95
          ],
          [
            389450.5,
            5812141.0
          ],
          [
            389450.80000000005,
            5812139.050000001
          ],
          [
            389451.15,
            5812137.100000001
          ],
          [
            389451.5,
            5812135.100000001
          ],
          [
            389451.85000000003,
            5812133.15
          ],
          [
            389452.15,
            5812131.2
          ],
          [
            389452.5,
            5812129.25
          ],
          [
            389452.85000000003,
            5812127.300000001
          ],
          [
            389453.2,
            5812125.350000001
          ],
          [
            389453.5,
            5812123.4
          ],
          [
            389453.85000000003,
            5812121.45
          ],
          [
            389454.2,
            5812119.5
          ],
          [
            389454.55000000005,
            5812117.5
          ],
          [
            389454.85000000003,
            5812115.550000001
          ],
          [
            389455.2,
            5812113.600000001
          ],
          [
            389455.55000000005,
            5812111.65
          ],
          [
            389455.9,
            5812109.7
          ],
          [
            389456.2,
            5812107.75
          ],
          [
            389456.55000000005,
            5812105.800000001
          ],
          [
            389456.9,
            5812103.850000001
          ],
          [
            389457.2,
            5812101.850000001
          ],
          [
            389457.55000000005,
            5812099.9
          ],
          [
            389457.9,
            5812097.95
          ],
          [
            389458.25,
            5812096.0
          ],
          [
            389458.55000000005,
            5812094.050000001
          ],
          [
            389458.9,
            5812092.100000001
          ],
          [
            389459.25,
            5812090.15
          ],
          [
            389459.60000000003,
            5812088.2
          ],
          [
            389459.9,
            5812086.2
          ],
          [
            389460.25,
            5812084.25
          ],
          [
            389460.60000000003,
            5812082.300000001
          ],
          [
            389460.95,
            5812080.350000001
          ],
          [
            389461.25,
            5812078.4
          ],
          [
            389461.60000000003,
            5812076.45
          ],
          [
            389461.85000000003,
            5812074.9
          ],
          [
            389461.15,
            5812073.0
          ],
          [
            389459.2,
            5812072.65
          ],
          [
            389457.25,
            5812072.300000001
          ],
          [
            389455.30000000005,
            5812071.95
          ],
          [
            389453.35000000003,
            5812071.600000001
          ],
          [
            389451.4,
            5812071.25
          ],
          [
            389449.4,
            5812070.9
          ],
          [
            389447.45,
            5812070.550000001
          ],
          [
            389445.5,
            5812070.2
          ],
          [
            389443.55000000005,
            5812069.850000001
          ],
          [
            389441.60000000003,
            5812069.5
          ],
          [
            389439.65,
            5812069.15
          ],
          [
            389437.7,
            5812068.800000001
          ],
          [
            389435.7,
            5812068.45
          ],
          [
            389433.75,
            5812068.100000001
          ],
          [
            389431.80000000005,
            5812067.75
          ],
          [
            389429.85000000003,
            5812067.4
          ],
          [
            389427.9,
            5812067.050000001
          ],
          [
            389425.95,
            5812066.7
          ],
          [
            389424.0,
            5812066.350000001
          ],
          [
            389422.05000000005,
            5812066.0
          ],
          [
            389420.05000000005,
            5812065.65
          ],
          [
            389418.10000000003,
            5812065.300000001
          ],
          [
            389416.15,
            5812064.95
          ],
          [
            389414.2,
            5812064.600000001
          ],
          [
            389412.25,
            5812064.25
          ],
          [
            389410.30000000005,
            5812063.9
          ],
          [
            389408.35000000003,
            5812063.550000001
          ],
          [
            389406.35000000003,
            5812063.15
          ],
          [
            389404.4,
            5812062.800000001
          ],
          [
            389402.45,
            5812062.45
          ],
          [
            389400.5,
            5812062.100000001
          ],
          [
            389398.55000000005,
            5812061.75
          ],
          [
            389396.60000000003,
            5812061.4
          ],
          [
            389394.65,
            5812061.050000001
          ],
          [
            389392.65,
            5812060.7
          ],
          [
            389390.7,
            5812060.350000001
          ],
          [
            389388.75,
            5812060.0
          ],
          [
            389386.80000000005,
            5812059.65
          ],
          [
            389384.85000000003,
            5812059.300000001
          ],
          [
            389382.9,
            5812058.95
          ],
          [
            389380.95,
            5812058.600000001
          ],
          [
            389378.95,
            5812058.25
          ],
          [
            389377.0,
            5812057.9
          ],
          [
            389375.05000000005,
            5812057.550000001
          ],
          [
            389373.10000000003,
            5812057.2
          ],
          [
            389371.15,
            5812056.850000001
          ],
          [
            389369.2,
            5812056.5
          ],
          [
            389367.25,
            5812056.15
          ],
          [
            389365.25,
            5812055.800000001
          ],
          [
            389363.30000000005,
            5812055.45
          ],
          [
            389361.35000000003,
            5812055.100000001
          ],
          [
            389359.4,
            5812054.75
          ],
          [
            389357.45,
            5812054.4
          ],
          [
            389355.5,
            5812054.050000001
          ],
          [
            389353.55000000005,
            5812053.7
          ],
          [
            389351.60000000003,
            5812053.350000001
          ],
          [
            389349.65,
            5812053.0
          ],
          [
            389347.7,
            5812052.65
          ],
          [
            389345.75,
            5812052.300000001
          ],
          [
            389343.80000000005,
            5812051.95
          ],
          [
            389341.85000000003,
            5812051.600000001
          ],
          [
            389339.9,
            5812051.25
          ],
          [
            389337.95,
            5812050.9
          ],
          [
            389336.0,
            5812050.550000001
          ],
          [
            389334.05000000005,
            5812050.2
          ],
          [
            389332.10000000003,
            5812049.850000001
          ],
          [
            389330.60000000003,
            5812049.2
          ],
          [
            389329.10000000003,
            5812048.600000001
          ],
          [
            389327.60000000003,
            5812047.95
          ],
          [
            389326.10000000003,
            5812047.350000001
          ],
          [
            389324.80000000005,
            5812046.25
          ],
          [
            389323.45,
            5812045.2
          ],
          [
            389322.15,
            5812044.100000001
          ],
          [
            389320.85000000003,
            5812043.050000001
          ],
          [
            389319.5,
            5812041.95
          ],
          [
            389318.2,
            5812040.9
          ],
          [
            389316.9,
            5812039.850000001
          ],
          [
            389315.60000000003,
            5812038.800000001
          ],
          [
            389314.35000000003,
            5812037.75
          ],
          [
            389313.05000000005,
            5812036.75
          ],
          [
            389311.7,
            5812035.65
          ],
          [
            389310.4,
            5812034.600000001
          ],
          [
            389309.05000000005,
            5812033.5
          ],
          [
            389307.75,
            5812032.4
          ],
          [
            389306.4,
            5812031.350000001
          ],
          [
            389305.15,
            5812030.300000001
          ],
          [
            389303.80000000005,
            5812029.300000001
          ],
          [
            389302.7,
            5812028.45
          ],
          [
            389301.2,
            5812027.25
          ],
          [
            389299.85000000003,
            5812026.2
          ],
          [
            389298.55000000005,
            5812025.2
          ],
          [
            389297.2,
            5812024.15
          ],
          [
            389295.95,
            5812023.2
          ],
          [
            389294.65,
            5812022.2
          ],
          [
            389293.4,
            5812021.2
          ],
          [
            389292.10000000003,
            5812020.2
          ],
          [
            389290.55000000005,
            5812019.0
          ],
          [
            389288.95,
            5812017.800000001
          ],
          [
            389287.4,
            5812016.550000001
          ],
          [
            389285.85000000003,
            5812015.350000001
          ],
          [
            389284.25,
            5812014.15
          ],
          [
            389282.7,
            5812012.9
          ],
          [
            389281.10000000003,
            5812011.7
          ],
          [
            389279.55000000005,
            5812010.5
          ],
          [
            389278.0,
            5812009.25
          ],
          [
            389276.4,
            5812008.050000001
          ],
          [
            389274.85000000003,
            5812006.850000001
          ],
          [
            389273.25,
            5812005.600000001
          ],
          [
            389271.7,
            5812004.4
          ],
          [
            389270.15,
            5812003.2
          ],
          [
            389268.55000000005,
            5812001.95
          ],
          [
            389267.0,
            5812000.75
          ],
          [
            389265.45,
            5811999.550000001
          ],
          [
            389263.85000000003,
            5811998.300000001
          ],
          [
            389262.30000000005,
            5811997.100000001
          ],
          [
            389260.7,
            5811995.9
          ],
          [
            389259.15,
            5811994.7
          ],
          [
            389257.60000000003,
            5811993.45
          ],
          [
            389256.0,
            5811992.25
          ],
          [
            389254.45,
            5811991.050000001
          ],
          [
            389252.85000000003,
            5811989.800000001
          ],
          [
            389251.30000000005,
            5811988.600000001
          ],
          [
            389249.75,
            5811987.4
          ],
          [
            389248.15,
            5811986.15
          ],
          [
            389246.60000000003,
            5811984.95
          ],
          [
            389245.0,
            5811983.75
          ],
          [
            389243.45,
            5811982.5
          ],
          [
            389241.9,
            5811981.300000001
          ],
          [
            389240.30000000005,
            5811980.100000001
          ],
          [
            389238.75,
            5811978.850000001
          ],
          [
            389237.15,
            5811977.65
          ],
          [
            389235.60000000003,
            5811976.45
          ],
          [
            389234.05000000005,
            5811975.2
          ],
          [
            389232.45,
            5811974.0
          ],
          [
            389230.9,
            5811972.800000001
          ],
          [
            389229.30000000005,
            5811971.550000001
          ],
          [
            389227.75,
            5811970.350000001
          ],
          [
            389226.2,
            5811969.15
          ],
          [
            389224.60000000003,
            5811967.9
          ],
          [
            389223.05000000005,
            5811966.7
          ],
          [
            389221.45,
            5811965.5
          ],
          [
            389219.9,
            5811964.25
          ],
          [
            389218.35000000003,
            5811963.050000001
          ],
          [
            389216.75,
            5811961.850000001
          ],
          [
            389215.2,
            5811960.600000001
          ],
          [
            389213.60000000003,
            5811959.4
          ],
          [
            389212.05000000005,
            5811958.2
          ],
          [
            389210.5,
            5811956.95
          ],
          [
            389208.9,
            5811955.75
          ],
          [
            389207.35000000003,
            5811954.550000001
          ],
          [
            389205.75,
            5811953.300000001
          ],
          [
            389204.2,
            5811952.100000001
          ],
          [
            389202.65,
            5811950.9
          ],
          [
            389201.05000000005,
            5811949.7
          ],
          [
            389199.5,
            5811948.45
          ],
          [
            389197.9,
            5811947.25
          ],
          [
            389196.35000000003,
            5811946.050000001
          ],
          [
            389194.80000000005,
            5811944.800000001
          ],
          [
            389193.2,
            5811943.600000001
          ],
          [
            389191.65,
            5811942.4
          ],
          [
            389190.05000000005,
            5811941.15
          ],
          [
            389188.5,
            5811939.95
          ],
          [
            389186.95,
            5811938.75
          ],
          [
            389185.35000000003,
            5811937.5
          ],
          [
            389183.80000000005,
            5811936.300000001
          ],
          [
            389182.2,
            5811935.100000001
          ],
          [
            389180.65,
            5811933.850000001
          ],
          [
            389179.10000000003,
            5811932.65
          ],
          [
            389177.5,
            5811931.45
          ],
          [
            389175.95,
            5811930.2
          ],
          [
            389174.4,
            5811929.0
          ],
          [
            389172.80000000005,
            5811927.800000001
          ],
          [
            389171.25,
            5811926.550000001
          ],
          [
            389169.65,
            5811925.350000001
          ],
          [
            389168.10000000003,
            5811924.15
          ],
          [
            389166.55000000005,
            5811922.9
          ],
          [
            389164.95,
            5811921.7
          ],
          [
            389163.4,
            5811920.5
          ],
          [
            389161.80000000005,
            5811919.25
          ],
          [
            389160.25,
            5811918.050000001
          ],
          [
            389158.7,
            5811916.850000001
          ],
          [
            389157.10000000003,
            5811915.600000001
          ],
          [
            389155.55000000005,
            5811914.4
          ],
          [
            389153.95,
            5811913.2
          ],
          [
            389152.4,
            5811911.95
          ],
          [
            389150.85000000003,
            5811910.75
          ],
          [
            389149.25,
            5811909.550000001
          ],
          [
            389147.7,
            5811908.300000001
          ],
          [
            389146.10000000003,
            5811907.100000001
          ],
          [
            389144.55000000005,
            5811905.9
          ],
          [
            389143.0,
            5811904.7
          ],
          [
            389141.4,
            5811903.45
          ],
          [
            389139.85000000003,
            5811902.25
          ],
          [
            389138.25,
            5811901.050000001
          ],
          [
            389136.7,
            5811899.800000001
          ],
          [
            389137.0618144272,
            5811900.091257788
          ],
          [
            389133.9995878219,
            5811904.043822553
          ],
          [
            389133.9995878219,
            5811904.043822553
          ],
          [
            389137.0618144272,
            5811900.091257788
          ]
        ]
      },
      "properties": {
        "SRC_ID": "BF_FIBRE_007",
        "STAGE": "brownfield",
        "ASSET_TYPE": "fibre",
        "INFRA_STATUS": "Existing",
        "VERIFY_STATUS": "Verified",
        "CAPACITY_USED": 69,
        "CAPACITY_TOTAL": 144,
        "POLYGON_ID": "POLY00022",
        "PDP_ID": "PDP00022",
        "REUSE_SOURCE": ""
      }
    },
    {
      "type": "Feature",
      "geometry": {
        "type": "LineString",
        "coordinates": [
          [
            389431.24287634034,
            5812174.393726567
          ],
          [
            389433.95,
            5812178.600000001
          ],
          [
            389435.4,
            5812177.9
          ],
          [
            389436.75,
            5812176.850000001
          ],
          [
            389438.10000000003,
            5812175.800000001
          ],
          [
            389439.45,
            5812174.800000001
          ],
          [
            389440.60000000003,
            5812173.550000001
          ],
          [
            389441.75,
            5812172.350000001
          ],
          [
            389442.9,
            5812171.100000001
          ],
          [
            389443.7,
            5812169.65
          ],
          [
            389444.55000000005,
            5812168.15
          ],
          [
            389445.4,
            5812166.7
          ],
          [
            389445.85000000003,
            5812165.300000001
          ],
          [
            389446.35000000003,
            5812163.9
          ],
          [
            389446.80000000005,
            5812162.5
          ],
          [
            389447.10000000003,
            5812160.550000001
          ],
          [
            389447.45,
            5812158.600000001
          ],
          [
            389447.80000000005,
            5812156.65
          ],
          [
            389448.15,
            5812154.7
          ],
          [
            389448.45,
            5812152.75
          ],
          [
            389448.80000000005,
            5812150.75
          ],
          [
            389449.15,
            5812148.800000001
          ],
          [
            389449.5,
            5812146.850000001
          ],
          [
            389449.80000000005,
            5812144.9
          ],
          [
            389450.15,
            5812142.95
          ],
          [
            389450.5,
            5812141.0
          ],
          [
            389450.80000000005,
            5812139.050000001
          ],
          [
            389451.15,
            5812137.100000001
          ],
          [
            389451.5,
            5812135.100000001
          ],
          [
            389451.85000000003,
            5812133.15
          ],
          [
            389452.15,
            5812131.2
          ],
          [
            389452.5,
            5812129.25
          ],
          [
            389452.85000000003,
            5812127.300000001
          ],
          [
            389453.2,
            5812125.350000001
          ],
          [
            389453.5,
            5812123.4
          ],
          [
            389453.85000000003,
            5812121.45
          ],
          [
            389454.2,
            5812119.5
          ],
          [
            389454.55000000005,
            5812117.5
          ],
          [
            389454.85000000003,
            5812115.550000001
          ],
          [
            389455.2,
            5812113.600000001
          ],
          [
            389455.55000000005,
            5812111.65
          ],
          [
            389455.9,
            5812109.7
          ],
          [
            389456.2,
            5812107.75
          ],
          [
            389456.55000000005,
            5812105.800000001
          ],
          [
            389456.9,
            5812103.850000001
          ],
          [
            389457.2,
            5812101.850000001
          ],
          [
            389457.55000000005,
            5812099.9
          ],
          [
            389457.9,
            5812097.95
          ],
          [
            389458.25,
            5812096.0
          ],
          [
            389458.55000000005,
            5812094.050000001
          ],
          [
            389458.9,
            5812092.100000001
          ],
          [
            389459.25,
            5812090.15
          ],
          [
            389459.60000000003,
            5812088.2
          ],
          [
            389459.9,
            5812086.2
          ],
          [
            389460.25,
            5812084.25
          ],
          [
            389460.60000000003,
            5812082.300000001
          ],
          [
            389460.95,
            5812080.350000001
          ],
          [
            389461.25,
            5812078.4
          ],
          [
            389461.60000000003,
            5812076.45
          ],
          [
            389461.85000000003,
            5812074.9
          ],
          [
            389463.10000000003,
            5812073.350000001
          ],
          [
            389465.10000000003,
            5812073.75
          ],
          [
            389467.0,
            5812074.100000001
          ],
          [
            389468.95,
            5812074.45
          ],
          [
            389470.9,
            5812074.800000001
          ],
          [
            389472.85000000003,
            5812075.2
          ],
          [
            389474.80000000005,
            5812075.550000001
          ],
          [
            389476.75,
            5812075.9
          ],
          [
            389478.7,
            5812076.25
          ],
          [
            389480.65,
            5812076.65
          ],
          [
            389482.60000000003,
            5812077.0
          ],
          [
            389484.80000000005,
            5812077.15
          ],
          [
            389485.10000000003,
            5812075.25
          ],
          [
            389485.45,
            5812073.350000001
          ],
          [
            389487.60000000003,
            5812071.850000001
          ],
          [
            389489.55000000005,
            5812072.2
          ],
          [
            389491.45,
            5812072.550000001
          ],
          [
            389493.4,
            5812072.9
          ],
          [
            389495.35000000003,
            5812073.300000001
          ],
          [
            389497.30000000005,
            5812073.65
          ],
          [
            389499.25,
            5812074.0
          ],
          [
            389501.2,
            5812074.350000001
          ],
          [
            389503.15,
            5812074.75
          ],
          [
            389505.10000000003,
            5812075.100000001
          ],
          [
            389507.05000000005,
            5812075.45
          ],
          [
            389509.0,
            5812075.850000001
          ],
          [
            389510.95,
            5812076.2
          ],
          [
            389512.9,
            5812076.550000001
          ],
          [
            389514.85000000003,
            5812076.9
          ],
          [
            389516.80000000005,
            5812077.300000001
          ],
          [
            389518.75,
            5812077.65
          ],
          [
            389520.7,
            5812078.0
          ],
          [
            389522.65,
            5812078.350000001
          ],
          [
            389524.55000000005,
            5812078.75
          ],
          [
            389526.5,
            5812079.100000001
          ],
          [
            389528.45,
            5812079.45
          ],
          [
            389530.4,
            5812079.850000001
          ],
          [
            389532.35000000003,
            5812080.2
          ],
          [
            389534.30000000005,
            5812080.550000001
          ],
          [
            389537.2,
            5812080.050000001
          ],
          [
            389537.45,
            5812078.100000001
          ],
          [
            389537.7,
            5812076.2
          ],
          [
            389537.95,
            5812074.25
          ],
          [
            389538.2,
            5812072.300000001
          ],
          [
            389538.45,
            5812070.350000001
          ],
          [
            389538.7,
            5812068.4
          ],
          [
            389538.95,
            5812066.45
          ],
          [
            389539.2,
            5812064.550000001
          ],
          [
            389539.45,
            5812062.600000001
          ],
          [
            389539.7,
            5812060.65
          ],
          [
            389539.9,
            5812058.7
          ],
          [
            389540.15,
            5812056.75
          ],
          [
            389540.4,
            5812054.850000001
          ],
          [
            389540.65,
            5812052.9
          ],
          [
            389540.9,
            5812050.95
          ],
          [
            389541.15,
            5812049.0
          ],
          [
            389541.4,
            5812047.050000001
          ],
          [
            389541.65,
            5812045.100000001
          ],
          [
            389541.9,
            5812043.2
          ],
          [
            389542.15,
            5812041.25
          ],
          [
            389542.4,
            5812039.300000001
          ],
          [
            389542.65,
            5812037.350000001
          ],
          [
            389542.85000000003,
            5812035.4
          ],
          [
            389543.10000000003,
            5812033.45
          ],
          [
            389543.35000000003,
            5812031.550000001
          ],
          [
            389543.60000000003,
            5812029.600000001
          ],
          [
            389543.85000000003,
            5812027.65
          ],
          [
            389544.10000000003,
            5812025.7
          ],
          [
            389544.35000000003,
            5812023.75
          ],
          [
            389544.60000000003,
            5812021.800000001
          ],
          [
            389544.85000000003,
            5812019.9
          ],
          [
            389545.10000000003,
            5812017.95
          ],
          [
            389545.35000000003,
            5812016.0
          ],
          [
            389545.60000000003,
            5812014.050000001
          ],
          [
            389545.80000000005,
            5812012.100000001
          ],
          [
            389546.05000000005,
            5812010.15
          ],
          [
            389546.30000000005,
            5812008.25
          ],
          [
            389546.55000000005,
            5812006.300000001
          ],
          [
            389546.80000000005,
            5812004.350000001
          ],
          [
            389547.05000000005,
            5812002.4
          ],
          [
            389547.30000000005,
            5812000.45
          ],
          [
            389547.55000000005,
            5811998.5
          ],
          [
            389547.75,
            5811996.95
          ],
          [
            389548.7,
            5811995.25
          ],
          [
            389550.55000000005,
            5811995.4
          ],
          [
            389552.5,
            5811995.600000001
          ],
          [
            389554.45,
            5811995.800000001
          ],
          [
            389556.4,
            5811995.95
          ],
          [
            389558.35000000003,
            5811996.15
          ],
          [
            389560.30000000005,
            5811996.350000001
          ],
          [
            389562.25,
            5811996.550000001
          ],
          [
            389564.2,
            5811996.7
          ],
          [
            389565.15,
            5811994.75
          ],
          [
            389565.35000000003,
            5811992.850000001
          ],
          [
            389566.75,
            5811990.95
          ],
          [
            389568.7,
            5811991.15
          ],
          [
            389570.65,
            5811991.300000001
          ],
          [
            389572.60000000003,
            5811991.5
          ],
          [
            389574.55000000005,
            5811991.7
          ],
          [
            389576.5,
            5811991.9
          ],
          [
            389578.45,
            5811992.050000001
          ],
          [
            389580.45,
            5811992.25
          ],
          [
            389582.4,
            5811992.45
          ],
          [
            389584.35000000003,
            5811992.65
          ],
          [
            389586.30000000005,
            5811992.800000001
          ],
          [
            389588.25,
            5811993.0
          ],
          [
            389590.2,
            5811993.2
          ],
          [
            389592.05000000005,
            5811993.350000001
          ],
          [
            389593.9,
            5811993.550000001
          ],
          [
            389595.75,
            5811993.75
          ],
          [
            389597.55000000005,
            5811993.9
          ],
          [
            389599.4,
            5811994.100000001
          ],
          [
            389601.25,
            5811994.25
          ],
          [
            389603.15,
            5811994.45
          ],
          [
            389605.10000000003,
            5811994.65
          ],
          [
            389607.0,
            5811994.800000001
          ],
          [
            389608.9,
            5811995.0
          ],
          [
            389610.80000000005,
            5811995.2
          ],
          [
            389612.7,
            5811995.350000001
          ],
          [
            389614.60000000003,
            5811995.550000001
          ],
          [
            389616.55000000005,
            5811995.75
          ],
          [
            389618.45,
            5811995.9
          ],
          [
            389620.35000000003,
            5811996.100000001
          ],
          [
            389622.25,
            5811996.300000001
          ],
          [
            389624.15,
            5811996.45
          ],
          [
            389626.05000000005,
            5811996.65
          ],
          [
            389628.0,
            5811996.850000001
          ],
          [
            389629.9,
            5811997.0
          ],
          [
            389631.80000000005,
            5811997.2
          ],
          [
            389633.7,
            5811997.4
          ],
          [
            389635.60000000003,
            5811997.550000001
          ],
          [
            389637.5,
            5811997.75
          ],
          [
            389639.45,
            5811997.95
          ],
          [
            389641.35000000003,
            5811998.100000001
          ],
          [
            389643.30000000005,
            5811998.300000001
          ],
          [
            389645.30000000005,
            5811998.5
          ],
          [
            389647.25,
            5811998.7
          ],
          [
            389649.25,
            5811998.9
          ],
          [
            389651.25,
            5811999.050000001
          ],
          [
            389653.2,
            5811999.25
          ],
          [
            389655.2,
            5811999.45
          ],
          [
            389657.15,
            5811999.65
          ],
          [
            389659.15,
            5811999.850000001
          ],
          [
            389661.10000000003,
            5812000.050000001
          ],
          [
            389663.10000000003,
            5812000.2
          ],
          [
            389665.10000000003,
            5812000.4
          ],
          [
            389667.05000000005,
            5812000.600000001
          ],
          [
            389669.05000000005,
            5812000.800000001
          ],
          [
            389671.0,
            5812001.0
          ],
          [
            389673.0,
            5812001.15
          ],
          [
            389675.0,
            5812001.350000001
          ],
          [
            389676.95,
            5812001.550000001
          ],
          [
            389678.95,
            5812001.75
          ],
          [
            389680.9,
            5812001.95
          ],
          [
            389682.9,
            5812002.100000001
          ],
          [
            389684.85000000003,
            5812002.300000001
          ],
          [
            389686.85000000003,
            5812002.5
          ],
          [
            389688.85000000003,
            5812002.7
          ],
          [
            389690.80000000005,
            5812002.9
          ],
          [
            389692.80000000005,
            5812003.050000001
          ],
          [
            389694.75,
            5812003.25
          ],
          [
            389696.75,
            5812003.45
          ],
          [
            389698.75,
            5812003.65
          ],
          [
            389700.7,
            5812003.850000001
          ],
          [
            389702.7,
            5812004.0
          ],
          [
            389704.65,
            5812004.2
          ],
          [
            389706.65,
            5812004.4
          ],
          [
            389708.60000000003,
            5812004.600000001
          ],
          [
            389710.60000000003,
            5812004.800000001
          ],
          [
            389712.60000000003,
            5812005.0
          ],
          [
            389714.55000000005,
            5812005.15
          ],
          [
            389716.55000000005,
            5812005.350000001
          ],
          [
            389718.5,
            5812005.550000001
          ],
          [
            389720.5,
            5812005.75
          ],
          [
            389722.5,
            5812005.95
          ],
          [
            389724.45,
            5812006.100000001
          ],
          [
            389726.45,
            5812006.300000001
          ],
          [
            389728.4,
            5812006.5
          ],
          [
            389730.4,
            5812006.7
          ],
          [
            389732.35000000003,
            5812006.9
          ],
          [
            389734.35000000003,
            5812007.050000001
          ],
          [
            389736.35000000003,
            5812007.25
          ],
          [
            389738.30000000005,
            5812007.45
          ],
          [
            389740.30000000005,
            5812007.65
          ],
          [
            389742.25,
            5812007.850000001
          ],
          [
            389744.25,
            5812008.0
          ],
          [
            389746.25,
            5812008.2
          ],
          [
            389748.2,
            5812008.4
          ],
          [
            389750.2,
            5812008.600000001
          ],
          [
            389751.1093381687,
            5812008.68431961
          ],
          [
            389751.58827255643,
            5812003.707310282
          ],
          [
            389751.58827255643,
            5812003.707310282
          ],
          [
            389751.1093381687,
            5812008.68431961
          ]
        ]
      },
      "properties": {
        "SRC_ID": "BF_FIBRE_009",
        "STAGE": "brownfield",
        "ASSET_TYPE": "fibre",
        "INFRA_STATUS": "Existing",
        "VERIFY_STATUS": "Verified",
        "CAPACITY_USED": 24,
        "CAPACITY_TOTAL": 48,
        "POLYGON_ID": "POLY00028",
        "PDP_ID": "PDP00028",
        "REUSE_SOURCE": ""
      }
    }
  ]
}