{
  "type": "FeatureCollection",
  "crs": {
    "type": "name",
    "properties": {
      "name": "EPSG:25833"
    }
  },
  "features": [
    {
      "type": "Feature",
      "geometry": {
        "type": "Point",
        "coordinates": [
          389431.24287634034,
          5812174.393726567
        ]
      },
      "properties": {
        "SRC_ID": "MFG00001",
        "STAGE": "brownfield",
        "ASSET_TYPE": "mfg",
        "INFRA_STATUS": "Existing",
        "VERIFY_STATUS": "Verified",
        "CAPACITY_USED": 0,
        "CAPACITY_TOTAL": 1,
        "POLYGON_ID": "",
        "PDP_ID": "",
        "MFG_ID": "MFG00001",
        "NODE_TYPE": "MFG",
        "REUSE_SOURCE": ""
      }
    }
  ]
}